P/2022 R5 (PANSTARRS),e,15.2940,115.0501,240.5592,3.068829,0.1833349,0.19517581,127.3885,04/21.0/2024,2000,g 16.0,4.0
# From MPEC 2024-H50
C/2022 R6 (PANSTARRS),h,08/25.5892/2025,57.0212,150.7781,319.8627,1.004530,6.566834,2000,5.0,4.0
# From MPEC 2023-HD1
P/2022 S1 (PANSTARRS),e,34.5770,136.0935,262.8008,6.408467,0.0607537,0.50802167,37.1046,04/21.0/2024,2000,g 15.1,4.0
# From MPEC 2022-VC5
C/2022 S3 (PANSTARRS),h,01/21.6959/2023,78.5307,157.3079,267.9663,1.000401,0.838310,2000,17.0,4.0
# From MPEC 2024-GJ3
C/2022 S4 (Lemmon),e,101.2206,220.1740,268.5509,1184,0.0000242,0.99766701,0.0000,07/18.7345/2024,2000,g  8.0,4.0
# From MPEC 2023-HD1
C/2022 S5 (PANSTARRS),e,136.5310,214.8605,232.8051,20.47470,0.0106384,0.89356569,5.4302,04/21.0/2024,2000,g 16.3,4.0
# From MPEC 2024-H50
C/2022 T1 (Lemmon),e,22.5441,236.9185,324.3071,424092,0.0000000,0.99999188,0.0000,02/17.4627/2024,2000,g  9.0,4.0
# From MPEC 2024-GJ3
C/2022 U1 (Leonard),e,128.1496,72.5263,78.5862,7071,0.0000017,0.99940572,0.0000,03/25.8814/2024,2000,g  8.5,4.0
# From MPEC 2023-VM5
C/2022 U2 (ATLAS),e,48.2450,304.4523,147.9375,96.85941,0.0010339,0.98628716,0.0000,01/14.2454/2023,2000,g 16.0,4.0
# From MPEC 2024-GJ3
C/2022 U3 (Bok),h,07/28.3410/2024,33.6499,272.7841,189.0850,1.002531,4.826468,2000,7.5,4.0
# From MPEC 2023-W26
C/2022 U4 (Bok),e,52.0384,132.9190,89.0055,2972,0.0000061,0.99902479,0.0000,08/03.6505/2023,2000,g 10.5,4.0
# From MPEC 2024-H50
C/2022 V2 (Lemmon),e,98.9027,332.8701,168.9505,36.80630,0.0044139,0.94393328,0.7551,04/21.0/2024,2000,g 12.0,4.0
# From MPEC 2023-CD7
P/2022 W1 (Rankin),e,13.4659,38.8169,17.8551,6.970720,0.0535535,0.51665083,31.2210,04/21.0/2024,2000,g 12.5,4.0
# From MPEC 2024-EF7
C/2022 W2 (ATLAS),e,63.5212,320.4505,123.2790,343.4094,0.0001549,0.99090543,0.0000,03/08.7623/2023,2000,g 11.5,4.0
# From MPEC 2024-C04
C/2022 W3 (Leonard),e,103.5629,132.2724,116.5252,279.3387,0.0002111,0.99499615,0.0000,06/22.7737/2023,2000,g 13.0,4.0
# From MPEC 2023-M14
C/2022 Y1 (Hogan),e,18.8552,285.8980,174.7934,12.58340,0.0220804,0.76490371,11.2740,04/21.0/2024,2000,g  9.0,4.0
# From MPEC 2023-TM6
C/2022 Y2 (Lemmon),e,165.8857,216.3511,105.4447,19.77942,0.0112043,0.87155029,4.4305,04/21.0/2024,2000,g 13.5,4.0
# From MPEC 2024-GJ3
C/2023 A1 (Leonard),e,94.7382,318.2998,159.2471,223.7645,0.0002945,0.99180020,0.0000,03/18.6968/2023,2000,g 14.5,4.0
# From MPEC 2023-J95
C/2023 A2 (SWAN),e,94.7101,94.4856,142.5483,441.4641,0.0001063,0.99785514,0.0000,01/20.3676/2023,2000,g 13.5,4.0
# From MPEC 2024-H50
C/2023 A3 (Tsuchinshan-ATLAS),h,09/27.7424/2024,139.1123,21.5596,308.4900,1.000108,0.391451,2000,5.0,4.0
# From MPEC 2024-F34
P/2023 B1 (PANSTARRS),e,14.5882,78.5631,81.5435,7.057780,0.0525656,0.13000374,18.7037,04/21.0/2024,2000,g  5.5,4.0
# From MPEC 2023-XP6
C/2023 B2 (ATLAS),e,40.7709,218.1190,317.3781,596.0116,0.0000677,0.99707640,0.0000,03/10.4880/2023,2000,g 14.5,4.0
# From MPEC 2023-F81
P/2023 B3 (PANSTARRS),e,9.1598,154.0030,240.1808,4.547172,0.1016464,0.12301967,134.5215,04/21.0/2024,2000,g 10.5,4.0
# From MPEC 2024-H50
C/2023 C2 (ATLAS),e,48.3171,301.0080,357.4578,3235,0.0000054,0.99926792,0.0000,11/16.8154/2024,2000,g  7.0,4.0
# From MPEC 2024-D33
C/2023 E1 (ATLAS),e,38.2969,164.5523,105.9332,19.36971,0.0115616,0.94697811,3.4095,04/21.0/2024,2000,g 15.5,4.0
# From MPEC 2023-N01
C/2023 F1 (PANSTARRS),e,131.7475,25.2563,216.6881,264.5166,0.0002291,0.99353976,0.0000,06/28.3745/2023,2000,g 16.0,4.0
# From MPEC 2024-H50
C/2023 F3 (ATLAS),h,02/02.7121/2025,145.9613,109.4533,265.5339,1.004302,5.190636,2000,6.0,4.0
# From MPEC 2023-M14
C/2023 H1 (PANSTARRS),e,21.7787,292.6339,333.8406,1514,0.0000167,0.99706562,0.0000,11/28.3548/2024,2000,g 12.6,4.0
# From MPEC 2024-GJ3
C/2023 H2 (Lemmon),e,113.7536,217.0448,150.6459,243.3847,0.0002596,0.99632517,0.0000,10/29.1849/2023,2000,g 14.0,4.0
# From MPEC 2023-R20
C/2023 H3 (PANSTARRS),e,2.4893,55.0995,193.3147,13.62606,0.0195951,0.61597550,1.2171,04/21.0/2024,2000,g 10.0,4.0
# From MPEC 2023-SQ0
A/2023 H4,e,76.6187,230.8133,64.9190,141.5621,0.0005852,0.98502604,0.0000,08/08.8437/2023,2000,g 18.0,22.0
# From MPEC 2024-H50
C/2023 H5 (Lemmon),h,06/30.1546/2025,97.8668,159.4829,60.0787,1.000387,4.312991,2000,7.0,4.0
# From MPEC 2024-GJ3
C/2023 K1 (ATLAS),e,137.9985,223.7056,337.4591,735.2909,0.0000494,0.99722642,0.0000,09/07.7228/2023,2000,g 13.0,4.0
# From MPEC 2023-N01
P/2023 M1 (PANSTARRS),e,12.2883,216.8620,79.6891,6.846460,0.0550180,0.58722238,7.0757,04/21.0/2024,2000,g 13.5,4.0
# From MPEC 2024-BE0
P/2023 M2 (PANSTARRS),e,19.7256,83.2599,243.0711,5.565568,0.0750654,0.36956828,20.3005,04/21.0/2024,2000,g 12.5,4.0
# From MPEC 2024-GJ3
P/2023 M4 (ATLAS),e,7.5925,296.2951,320.6628,5.451219,0.0774397,0.27913618,57.0885,04/21.0/2024,2000,g  7.5,4.0
# From MPEC 2024-H50
C/2023 P1 (Nishimura),e,132.4770,66.8386,116.2951,57.01928,0.0022891,0.99605296,0.0000,09/17.6438/2023,2000,g 10.0,4.0
# From MPEC 2024-D33
C/2023 Q1 (PANSTARRS),h,12/01.2104/2024,36.6556,7.1542,84.4078,1.005066,2.575662,2000,10.0,4.0
# From MPEC 2023-XP6
C/2023 Q2 (PANSTARRS),e,104.0575,92.6795,171.7215,346.0471,0.0001531,0.99072551,0.0000,06/24.0686/2024,2000,g 11.5,4.0
# From MPEC 2024-D33
C/2023 R1 (PANSTARRS),h,04/13.8331/2026,149.3157,62.5519,144.2943,1.001281,3.569666,2000,6.0,4.0
# From MPEC 2024-GJ3
C/2023 R2 (PANSTARRS),h,08/12.1450/2024,30.6900,188.9158,337.2959,1.000237,0.905232,2000,10.5,4.0
# From MPEC 2023-UR6
A/2023 R3,e,12.0864,347.3511,86.8952,657.2389,0.0000585,0.99793442,0.0000,12/18.1835/2023,2000,g 20.0,22.0
# From MPEC 2024-GJ3
C/2023 RN3 (ATLAS),e,10.3567,207.0688,130.4171,10.16358,0.0304182,0.49090516,13.9272,04/21.0/2024,2000,g  7.5,4.0
# From MPEC 2024-GJ3
P/2023 S1,e,9.1495,317.3611,180.1235,3.851431,0.1303980,0.31973308,319.7488,04/21.0/2024,2000,g 11.5,4.0
# From MPEC 2023-XP6
C/2023 S2 (ATLAS),e,20.4858,230.5612,78.1214,158.2303,0.0004952,0.99325217,0.0000,10/15.4088/2023,2000,g 15.0,4.0
# From MPEC 2024-H50
C/2023 S3 (Lemmon),e,140.4981,233.8338,281.5724,28.48279,0.0064838,0.97085410,0.0000,01/19.6245/2024,2000,g 16.0,4.0
# From MPEC 2024-BE0
P/2023 T1 (PANSTARRS),e,6.6118,249.5745,202.8639,4.230351,0.1132764,0.33402816,356.3863,04/21.0/2024,2000,g 14.0,4.0
# From MPEC 2024-GJ3
C/2023 T2 (Borisov),e,48.5980,317.5321,111.1955,228.3000,0.0002857,0.99125949,0.0000,12/22.7925/2023,2000,g 14.5,4.0
# From MPEC 2024-H50
C/2023 T3 (Fuls),e,27.2221,246.0015,302.8481,712.5609,0.0000518,0.99502025,0.0000,01/25.3773/2025,2000,g  8.5,4.0
# From MPEC 2024-GJ3
C/2023 U1 (Fuls),e,108.1462,305.8094,255.6059,2266,0.0000091,0.99780512,0.0000,10/12.5924/2024,2000,g  8.0,4.0
# From MPEC 2024-GJ3
C/2023 V1 (Lemmon),e,102.0108,15.0277,103.3097,19807,0.0000004,0.99974288,0.0000,07/13.0770/2025,2000,g  8.5,4.0
# From MPEC 2024-D33
P/2023 V2 (PANSTARRS),e,9.8856,95.4724,330.5813,7.244145,0.0505503,0.57146318,3.8886,04/21.0/2024,2000,g 13.5,4.0
# From MPEC 2024-A43
C/2023 V3 (PANSTARRS),e,40.2920,91.4394,291.6301,13.26657,0.0203970,0.66288583,5.2682,04/21.0/2024,2000,g 11.5,4.0
# From MPEC 2024-GJ3
C/2023 V4 (Camarasa-Duszanowicz),h,05/30.3639/2024,67.1299,66.3258,50.8517,1.001035,1.121749,2000,12.0,4.0
# From MPEC 2024-GJ3
C/2023 V5 (Leonard),h,12/13.8685/2023,73.5794,31.5196,56.9564,1.009285,0.846218,2000,21.5,4.0
# From MPEC 2024-AF0
P/2023 V6 (PANSTARRS),e,3.9757,189.9937,193.7456,5.329850,0.0800998,0.17785092,39.4276,04/21.0/2024,2000,g 11.5,4.0
# From MPEC 2024-GJ3
C/2023 X1 (Leonard),e,110.5872,137.0117,321.4703,160.6353,0.0004841,0.99408283,0.0000,10/18.0840/2023,2000,g 13.5,3.2
# From MPEC 2024-DC6
C/2023 X2 (Lemmon),h,12/26.0648/2025,76.9893,66.3122,64.4657,1.001499,5.099908,2000,8.5,3.2
# From MPEC 2024-A43
P/2023 X3 (PANSTARRS),e,4.4834,62.0135,40.8100,4.247016,0.1126103,0.28652949,359.8968,04/21.0/2024,2000,g 15.5,4.0
# From MPEC 2024-EF7
C/2023 X4 (Hogan),e,11.5948,28.7655,100.5380,9.910074,0.0315928,0.63087855,358.9340,04/21.0/2024,2000,g 12.0,4.0
# From MPEC 2024-DA2
C/2023 X7 (PANSTARRS),h,05/14.8597/2025,69.0549,119.2083,354.3414,1.002214,4.821262,2000,9.0,4.0
# From MPEC 2024-GJ3
P/2023 Y1 (Gibbs),e,6.3841,78.8570,51.4359,3.748115,0.1358266,0.44510639,19.4556,04/21.0/2024,2000,g 17.0,4.0
# From MPEC 2024-F34
P/2023 Y2 (Gibbs),e,6.9927,79.2298,16.8200,3.744766,0.1360088,0.39219841,34.6971,04/21.0/2024,2000,g 15.5,4.0
# From MPEC 2024-H50
C/2024 A1 (ATLAS),h,06/13.6574/2025,94.4479,112.1384,353.2944,1.001392,3.875880,2000,7.0,4.0
# From MPEC 2024-H50
C/2024 A2 (ATLAS),e,119.1112,78.1674,295.5787,32.30549,0.0053677,0.94175535,359.9576,04/21.0/2024,2000,g 12.5,4.0
# From MPEC 2024-D33
C/2024 B1 (Lemmon),h,10/07.6923/2024,70.8989,79.1876,66.2081,1.001083,1.633597,2000,13.0,4.0
# From MPEC 2024-GJ3
C/2024 B2 (Lemmon),e,99.8384,294.3785,130.3182,5442,0.0000025,0.99925097,0.0000,10/06.0285/2023,2000,g 11.5,4.0
# From MPEC 2024-GJ3
C/2024 C1 (PANSTARRS),e,14.2268,83.8118,94.4734,10.55687,0.0287344,0.58199174,356.2087,04/21.0/2024,2000,g 11.5,4.0
# From MPEC 2024-EF7
C/2024 C2 (PANSTARRS),e,27.2839,66.4396,87.6234,16.18312,0.0151395,0.44447805,355.0759,04/21.0/2024,2000,g  6.0,4.0
# From MPEC 2024-GJ3
C/2024 C3 (PANSTARRS),e,22.4657,359.7084,159.6466,11.64328,0.0248080,0.42347800,4.0934,04/21.0/2024,2000,g  9.0,4.0
# From MPEC 2024-H50
C/2024 C4 (ATLAS),e,79.2868,220.6848,321.5224,83.78592,0.0012851,0.98244043,0.0000,01/30.1972/2024,2000,g 14.5,4.0
# From MPEC 2024-EG1
A/2024 D1,e,132.4554,179.6770,125.7222,1862,0.0000123,0.99639863,0.0000,12/04.8152/2027,2000,g 11.0,2.0
# From MPEC 2024-H50
C/2024 E1 (Wierzchos),h,01/20.5303/2026,75.2337,108.1114,243.6537,1.000130,0.564890,2000,7.0,4.0
# From MPEC 2024-GJ3
C/2024 E2 (Bok),e,155.6577,135.6537,357.9745,52.54148,0.0025879,0.85359190,0.4689,04/21.0/2024,2000,g  8.0,4.0
# From MPEC 2024-GJ3
P/2024 F1 (PANSTARRS),e,7.0129,251.4784,229.5786,3.444382,0.1541832,0.45973526,27.5360,04/21.0/2024,2000,g 16.0,4.0
# From MPEC 2024-H50
C/2024 F2 (PANSTARRS),e,13.7401,138.9821,112.6341,9.962507,0.0313438,0.60144160,356.9397,04/21.0/2024,2000,g 11.0,4.0
# From MPEC 2024-H50
